NORAD_CAT_ID,OBJECT_NAME,OBJECT_TYPE,EPOCH,MEAN_MOTION,ECCENTRICITY,INCLINATION,RA_OF_ASC_NODE,ARG_OF_PERICENTER,MEAN_ANOMALY,BSTAR,MEAN_MOTION_DOT,MEAN_MOTION_DDOT,TLE_LINE0,TLE_LINE1,TLE_LINE2,SEMIMAJOR_AXIS,PERIOD,APOGEE,PERIGEE,DECAYED
53635.0,STARLINK-4587,PAYLOAD,2023-10-28 19:56:01,15.08833804,0.000133,53.2155,137.591,89.8252,270.2893,-3.5298e-05,-8.5e-06,0.0,0 STARLINK-4587,1 53635U 22104AZ  23301.83057000 -.00000850  00000-0 -35298-4 0  9999,2 53635  53.2155 137.5910 0001330  89.8252 270.2893 15.08833804 64946,6917.899,95.438,540.684,538.844,0.0
53635.0,STARLINK-4587,PAYLOAD,2023-10-29 13:25:15,15.08845601,0.0001391,53.2171,134.3194,90.3186,269.7965,9.5816e-05,1.238e-05,0.0,0 STARLINK-4587,1 53635U 22104AZ  23302.55920417  .00001238  00000-0  95816-4 0  9991,2 53635  53.2171 134.3194 0001391  90.3186 269.7965 15.08845601 65057,6917.863,95.437,540.691,538.766,0.0
53635.0,STARLINK-4587,PAYLOAD,2023-10-29 19:46:46,15.08862538,0.0001637,53.2154,133.1303,82.2248,277.893,-0.00016907,-2.98e-05,0.0,0 STARLINK-4587,1 53635U 22104AZ  23302.82415393 -.00002980  00000-0 -16907-3 0  9993,2 53635  53.2154 133.1303 0001637  82.2248 277.8930 15.08862538 65093,6917.812,95.436,540.809,538.544,0.0
53635.0,STARLINK-4587,PAYLOAD,2023-10-29 22:57:33,15.08852157,0.0001282,53.2153,132.5355,86.4466,273.6673,0.00024512,3.617e-05,0.0,0 STARLINK-4587,1 53635U 22104AZ  23302.95664105  .00003617  00000-0  24512-3 0  9991,2 53635  53.2153 132.5355 0001282  86.4466 273.6673 15.08852157 65113,6917.843,95.437,540.595,538.821,0.0
53635.0,STARLINK-4587,PAYLOAD,2023-10-30 13:16:02,15.08836078,0.0001268,53.2164,129.8592,90.5941,269.5196,7.2051e-05,8.59e-06,0.0,0 STARLINK-4587,1 53635U 22104AZ  23303.55281026  .00000859  00000-0  72051-4 0  9992,2 53635  53.2164 129.8592 0001268  90.5941 269.5196 15.08836078 65203,6917.892,95.438,540.635,538.88,0.0
53635.0,STARLINK-4587,PAYLOAD,2023-10-30 19:37:35,15.08839272,0.0001249,53.2163,128.6702,91.7904,268.3232,0.00010607,1.401e-05,0.0,0 STARLINK-4587,1 53635U 22104AZ  23303.81776940  .00001401  00000-0  10607-3 0  9997,2 53635  53.2163 128.6702 0001249  91.7904 268.3232 15.08839272 66267,6917.883,95.438,540.612,538.884,0.0
53635.0,STARLINK-4587,PAYLOAD,2023-10-31 05:09:53,15.0884034,0.0001231,53.2162,126.8861,91.5999,268.5134,5.0453e-05,5.15e-06,0.0,0 STARLINK-4587,1 53635U 22104AZ  23304.21520791  .00000515  00000-0  50453-4 0  9992,2 53635  53.2162 126.8861 0001231  91.5999 268.5134 15.08840340 66323,6917.879,95.438,540.596,538.893,0.0
53635.0,STARLINK-4587,PAYLOAD,2023-10-31 19:28:22,15.08842352,0.0001232,53.2164,124.2099,93.265,266.8483,8.8261e-05,1.117e-05,0.0,0 STARLINK-4587,1 53635U 22104AZ  23304.81136764  .00001117  00000-0  88261-4 0  9998,2 53635  53.2164 124.2099 0001232  93.2650 266.8483 15.08842352 65393,6917.873,95.437,540.59,538.886,0.0
53635.0,STARLINK-4587,PAYLOAD,2023-10-31 21:03:45,15.08842741,0.0001233,53.2164,123.9126,93.2989,266.8144,0.00010479,1.38e-05,0.0,0 STARLINK-4587,1 53635U 22104AZ  23304.87760761  .00001380  00000-0  10479-3 0  9991,2 53635  53.2164 123.9126 0001233  93.2989 266.8144 15.08842741 66427,6917.872,95.437,540.59,538.884,0.0
53635.0,STARLINK-4587,PAYLOAD,2023-11-01 05:00:41,15.08839084,0.0001233,53.2163,122.4257,92.2982,267.8151,7.1807e-05,8.55e-06,0.0,0 STARLINK-4587,1 53635U 22104AZ  23305.20880963  .00000855  00000-0  71807-4 0  9995,2 53635  53.2163 122.4257 0001233  92.2982 267.8151 15.08839084 66477,6917.883,95.438,540.601,538.895,0.0
53635.0,STARLINK-4587,PAYLOAD,2023-11-01 20:54:32,15.08840175,0.0001232,53.2159,119.4502,87.3737,272.7397,0.00011955,1.615e-05,0.0,0 STARLINK-4587,1 53635U 22104AZ  23305.87121103  .00001615  00000-0  11955-3 0  9994,2 53635  53.2159 119.4502 0001232  87.3737 272.7397 15.08840175 65551,6917.88,95.438,540.597,538.893,0.0
53635.0,STARLINK-4587,PAYLOAD,2023-11-02 11:13:01,15.08837174,0.0001391,53.2169,116.7733,82.7048,277.4102,6.5777e-05,7.59e-06,0.0,0 STARLINK-4587,1 53635U 22104AZ  23306.46737473  .00000759  00000-0  65777-4 0  9993,2 53635  53.2169 116.7733 0001391  82.7048 277.4102 15.08837174 66662,6917.889,95.438,540.716,538.792,0.0
53635.0,STARLINK-4587,PAYLOAD,2023-11-02 17:34:33,15.08841462,0.000121,53.2157,115.5842,83.7075,276.4055,9.8312e-05,1.277e-05,0.0,0 STARLINK-4587,1 53635U 22104AZ  23306.73233218  .00001277  00000-0  98312-4 0  9998,2 53635  53.2157 115.5842 0001210  83.7075 276.4055 15.08841462 66704,6917.876,95.437,540.578,538.904,0.0
53635.0,STARLINK-4587,PAYLOAD,2023-11-03 04:42:15,15.08841353,0.0001181,53.2159,113.5025,85.3375,274.7752,9.698e-05,1.256e-05,0.0,0 STARLINK-4587,1 53635U 22104AZ  23307.19601227  .00001256  00000-0  96980-4 0  9994,2 53635  53.2159 113.5025 0001181  85.3375 274.7752 15.08841353 65753,6917.876,95.437,540.558,538.924,0.0
53635.0,STARLINK-4587,PAYLOAD,2023-11-03 12:39:11,15.08842109,0.0001232,53.2159,112.0158,81.7744,278.3387,0.00014526,2.025e-05,0.0,0 STARLINK-4587,1 53635U 22104AZ  23307.52721263  .00002025  00000-0  14526-3 0  9994,2 53635  53.2159 112.0158 0001232  81.7744 278.3387 15.08842109 66824,6917.874,95.437,540.591,538.887,0.0
53635.0,STARLINK-4587,PAYLOAD,2023-11-03 22:11:29,15.08854171,0.0001247,53.2161,110.2322,81.7118,278.4015,0.00029162,4.358e-05,0.0,0 STARLINK-4587,1 53635U 22104AZ  23307.92464646  .00004358  00000-0  29162-3 0  9990,2 53635  53.2161 110.2322 0001247  81.7118 278.4015 15.08854171 66888,6917.837,95.437,540.565,538.839,0.0
53635.0,STARLINK-4587,PAYLOAD,2023-11-04 10:54:35,15.0884109,0.0001524,53.2161,107.8536,85.1424,274.9743,0.00012585,1.716e-05,0.0,0 STARLINK-4587,1 53635U 22104AZ  23308.45457439  .00001716  00000-0  12585-3 0  9997,2 53635  53.2161 107.8536 0001524  85.1424 274.9743 15.08841090 65944,6917.877,95.437,540.796,538.688,0.0
53635.0,STARLINK-4587,PAYLOAD,2023-11-04 14:05:21,15.08835707,0.0001284,53.2161,107.2578,95.3709,264.7429,4.4243e-05,4.16e-06,0.0,0 STARLINK-4587,1 53635U 22104AZ  23308.58705639  .00000416  00000-0  44243-4 0  9992,2 53635  53.2161 107.2578 0001284  95.3709 264.7429 15.08835707 66987,6917.894,95.438,540.647,538.87,0.0
53635.0,STARLINK-4587,PAYLOAD,2023-11-04 17:16:08,15.08826317,0.0001287,53.2162,106.6641,80.7862,279.3275,-0.00010376,-1.938e-05,0.0,0 STARLINK-4587,1 53635U 22104AZ  23308.71954176 -.00001938  00000-0 -10376-3 0  9990,2 53635  53.2162 106.6641 0001287  80.7862 279.3275 15.08826317 65980,6917.922,95.438,540.678,538.897,0.0
53635.0,STARLINK-4587,PAYLOAD,2023-11-05 13:56:08,15.08847385,0.0001266,53.2171,102.7983,83.5792,276.5344,0.00010668,1.411e-05,0.0,0 STARLINK-4587,1 53635U 22104AZ  23309.58065039  .00001411  00000-0  10668-3 0  9995,2 53635  53.2171 102.7983 0001266  83.5792 276.5344 15.08847385 67139,6917.858,95.437,540.599,538.847,0.0
53635.0,STARLINK-4587,PAYLOAD,2023-11-05 17:06:54,15.08856049,0.0001345,53.2165,102.2034,78.8518,281.2626,0.00030882,4.632e-05,0.0,0 STARLINK-4587,1 53635U 22104AZ  23309.71312925  .00004632  00000-0  30882-3 0  9997,2 53635  53.2165 102.2034 0001345  78.8518 281.2626 15.08856049 66137,6917.831,95.437,540.627,538.766,0.0
53635.0,STARLINK-4587,PAYLOAD,2023-11-06 10:36:08,15.08854597,0.000136,53.2155,98.9312,78.9217,281.1928,0.00027123,4.033e-05,0.0,0 STARLINK-4587,1 53635U 22104AZ  23310.44176421  .00004033  00000-0  27123-3 0  9997,2 53635  53.2155  98.9312 0001360  78.9217 281.1928 15.08854597 66242,6917.836,95.437,540.642,538.76,0.0
53635.0,STARLINK-4587,PAYLOAD,2023-11-06 13:46:54,15.08857665,0.0001254,53.2158,98.3358,79.1765,280.9369,0.00039411,5.993e-05,0.0,0 STARLINK-4587,1 53635U 22104AZ  23310.57424125  .00005993  00000-0  39411-3 0  9997,2 53635  53.2158  98.3358 0001254  79.1765 280.9369 15.08857665 67282,6917.826,95.436,540.559,538.824,0.0
53635.0,STARLINK-4587,PAYLOAD,2023-11-06 16:57:42,15.08808457,0.0001323,53.2165,97.7414,86.8831,273.2313,-0.00033518,-5.614e-05,0.0,0 STARLINK-4587,1 53635U 22104AZ  23310.70674651 -.00005614  00000-0 -33518-3 0  9997,2 53635  53.2165  97.7414 0001323  86.8831 273.2313 15.08808457 66280,6917.977,95.44,540.757,538.927,0.0
53635.0,STARLINK-4587,PAYLOAD,2023-11-07 02:30:01,15.0881666,0.0001311,53.2169,95.9561,85.3757,274.7385,-0.00028768,-4.86e-05,0.0,0 STARLINK-4587,1 53635U 22104AZ  23311.10418502 -.00004860  00000-0 -28768-3 0  9996,2 53635  53.2169  95.9561 0001311  85.3757 274.7385 15.08816660 66342,6917.952,95.439,540.724,538.91,0.0
53635.0,STARLINK-4587,PAYLOAD,2023-11-07 10:26:57,15.08826169,0.0001235,53.2153,94.4711,89.1425,270.9709,-0.00034587,-5.786e-05,0.0,0 STARLINK-4587,1 53635U 22104AZ  23311.43538358 -.00005786  00000-0 -34587-3 0  9998,2 53635  53.2153  94.4711 0001235  89.1425 270.9709 15.08826169 66393,6917.923,95.438,540.642,538.933,0.0
53635.0,STARLINK-4587,PAYLOAD,2023-11-07 13:37:43,15.08828261,0.0001368,53.2158,93.8769,80.2241,279.8905,-0.00025505,-4.343e-05,0.0,0 STARLINK-4587,1 53635U 22104AZ  23311.56786419 -.00004343  00000-0 -25505-3 0  9993,2 53635  53.2158  93.8769 0001368  80.2241 279.8905 15.08828261 67436,6917.916,95.438,540.728,538.835,0.0
53635.0,STARLINK-4587,PAYLOAD,2023-11-07 16:48:29,15.08832248,0.0001396,53.216,93.2828,88.66,271.4552,-0.0001668,-2.941e-05,0.0,0 STARLINK-4587,1 53635U 22104AZ  23311.70034066 -.00002941  00000-0 -16680-3 0  9999,2 53635  53.2160  93.2828 0001396  88.6600 271.4552 15.08832248 66436,6917.904,95.438,540.735,538.803,0.0
53635.0,STARLINK-4587,PAYLOAD,2023-11-08 13:28:30,15.08842034,0.0001462,53.2158,89.4175,100.5104,259.6053,0.00049698,7.631e-05,0.0,0 STARLINK-4587,1 53635U 22104AZ  23312.56146584  .00007631  00000-0  49698-3 0  9997,2 53635  53.2158  89.4175 0001462 100.5104 259.6053 15.08842034 67587,6917.874,95.437,540.751,538.728,0.0
53635.0,STARLINK-4587,PAYLOAD,2023-11-08 16:39:16,15.08848755,0.000145,53.216,88.8223,98.1991,261.9166,0.00067333,0.00010447,0.0,0 STARLINK-4587,1 53635U 22104AZ  23312.69394467  .00010447  00000-0  67333-3 0  9991,2 53635  53.2160  88.8223 0001450  98.1991 261.9166 15.08848755 66586,6917.854,95.437,540.722,538.716,0.0
